USA 568                 
1 66551U 24134K   25336.66670139 -.01709685  00000+0 -74303-2 0  9990
2 66551  53.1571 236.7807 0000717 110.7411 313.9012 15.87051116  2624
GLOBAL-33               
1 66554U 25267A   25347.90264251  .00008305  00000+0  27438-3 0  9990
2 66554  42.0179  50.2807 0004927  73.8701 286.2679 15.31571977  3583
ELECTRON KICK STAGE R/B 
1 66555U 25267B   25347.88987567  .00026477  00000+0  82019-3 0  9996
2 66555  42.0199  50.1825 0006508  62.3193 297.8305 15.32886014  3586
STARLINK-35699          
1 66557U 25268A   25347.81715662  .00145782  00000+0  24436-2 0  9996
2 66557  42.9995 114.8976 0001620 271.7894  88.2781 15.50592436  4796
STARLINK-35695          
1 66558U 25268B   25347.68798260  .00092037  00000+0  15520-2 0  9995
2 66558  43.0006 115.6497 0002963 299.3158  60.7406 15.50654351  4771
STARLINK-35419          
1 66559U 25268C   25347.68763196  .00090791  00000+0  15325-2 0  9994
2 66559  43.0002 115.6467 0004607 276.7256  83.3080 15.50626619  4775
STARLINK-35411          
1 66560U 25268D   25347.68729314  .00076398  00000+0  12956-2 0  9994
2 66560  43.0004 115.6445 0002312 316.0869  43.9807 15.50572925  4773
STARLINK-35305          
1 66561U 25268E   25347.75101010  .00096406  00000+0  16289-2 0  9995
2 66561  42.9991 115.2604 0005353 238.6620 121.3717 15.50567943  4788
STARLINK-35579          
1 66562U 25268F   25347.68695328  .00072496  00000+0  12294-2 0  9993
2 66562  43.0001 115.6406 0002299 314.8190  45.2483 15.50595602  4778
STARLINK-35437          
1 66563U 25268G   25347.75068601  .00121894  00000+0  20499-2 0  9993
2 66563  42.9993 115.2574 0000972 282.1905  77.8847 15.50599495  4786
STARLINK-35358          
1 66564U 25268H   25347.68592480  .00105101  00000+0  17717-2 0  9995
2 66564  43.0002 115.6325 0001679 311.2605  48.8110 15.50605264  4776
STARLINK-35893          
1 66565U 25268J   25347.74999507  .00121027  00000+0  20348-2 0  9993
2 66565  42.9998 115.2522 0001815 277.9053  82.1601 15.50609427  4783
