CCSDS_OMM_VERS = 2.0
CREATION_DATE  = 
ORIGINATOR     = 

OBJECT_NAME    = USA 568
OBJECT_ID      = 2024-134K
CENTER_NAME    = EARTH
REF_FRAME      = TEME
TIME_SYSTEM    = UTC
MEAN_ELEMENT_THEORY = SGP/SGP4

EPOCH          = 2025-12-02T16:00:03.000096
MEAN_MOTION    = 15.87051116
ECCENTRICITY   = .0000717
INCLINATION    = 53.1571
RA_OF_ASC_NODE = 236.7807
ARG_OF_PERICENTER = 110.7411
MEAN_ANOMALY   = 313.9012

EPHEMERIS_TYPE = 0
CLASSIFICATION_TYPE = U
NORAD_CAT_ID   = 66551
ELEMENT_SET_NO = 999
REV_AT_EPOCH   = 262
BSTAR          = -.74303E-2
MEAN_MOTION_DOT = -.1709685E-1
MEAN_MOTION_DDOT = 0

CCSDS_OMM_VERS = 2.0
CREATION_DATE  = 
ORIGINATOR     = 

OBJECT_NAME    = GLOBAL-33
OBJECT_ID      = 2025-267A
CENTER_NAME    = EARTH
REF_FRAME      = TEME
TIME_SYSTEM    = UTC
MEAN_ELEMENT_THEORY = SGP/SGP4

EPOCH          = 2025-12-13T21:39:48.312864
MEAN_MOTION    = 15.31571977
ECCENTRICITY   = .00049277
INCLINATION    = 42.0179
RA_OF_ASC_NODE = 50.2807
ARG_OF_PERICENTER = 73.8701
MEAN_ANOMALY   = 286.2679

EPHEMERIS_TYPE = 0
CLASSIFICATION_TYPE = U
NORAD_CAT_ID   = 66554
ELEMENT_SET_NO = 999
REV_AT_EPOCH   = 358
BSTAR          = .27437928E-3
MEAN_MOTION_DOT = .8305E-4
MEAN_MOTION_DDOT = 0

CCSDS_OMM_VERS = 2.0
CREATION_DATE  = 
ORIGINATOR     = 

OBJECT_NAME    = ELECTRON KICK STAGE R/B
OBJECT_ID      = 2025-267B
CENTER_NAME    = EARTH
REF_FRAME      = TEME
TIME_SYSTEM    = UTC
MEAN_ELEMENT_THEORY = SGP/SGP4

EPOCH          = 2025-12-13T21:21:25.257888
MEAN_MOTION    = 15.32886014
ECCENTRICITY   = .00065085
INCLINATION    = 42.0199
RA_OF_ASC_NODE = 50.1825
ARG_OF_PERICENTER = 62.3193
MEAN_ANOMALY   = 297.8305

EPHEMERIS_TYPE = 0
CLASSIFICATION_TYPE = U
NORAD_CAT_ID   = 66555
ELEMENT_SET_NO = 999
REV_AT_EPOCH   = 358
BSTAR          = .82018633E-3
MEAN_MOTION_DOT = .26477E-3
MEAN_MOTION_DDOT = 0

CCSDS_OMM_VERS = 2.0
CREATION_DATE  = 
ORIGINATOR     = 

OBJECT_NAME    = STARLINK-35699
OBJECT_ID      = 2025-268A
CENTER_NAME    = EARTH
REF_FRAME      = TEME
TIME_SYSTEM    = UTC
MEAN_ELEMENT_THEORY = SGP/SGP4

EPOCH          = 2025-12-13T19:36:42.331968
MEAN_MOTION    = 15.50592436
ECCENTRICITY   = .00016209
INCLINATION    = 42.9995
RA_OF_ASC_NODE = 114.8976
ARG_OF_PERICENTER = 271.7894
MEAN_ANOMALY   = 88.2781

EPHEMERIS_TYPE = 0
CLASSIFICATION_TYPE = U
NORAD_CAT_ID   = 66557
ELEMENT_SET_NO = 999
REV_AT_EPOCH   = 479
BSTAR          = .24435786E-2
MEAN_MOTION_DOT = .145782E-2
MEAN_MOTION_DDOT = 0

CCSDS_OMM_VERS = 2.0
CREATION_DATE  = 
ORIGINATOR     = 

OBJECT_NAME    = STARLINK-35695
OBJECT_ID      = 2025-268B
CENTER_NAME    = EARTH
REF_FRAME      = TEME
TIME_SYSTEM    = UTC
MEAN_ELEMENT_THEORY = SGP/SGP4

EPOCH          = 2025-12-13T16:30:41.696640
MEAN_MOTION    = 15.50654351
ECCENTRICITY   = .00029632
INCLINATION    = 43.0006
RA_OF_ASC_NODE = 115.6497
ARG_OF_PERICENTER = 299.3158
MEAN_ANOMALY   = 60.7406

EPHEMERIS_TYPE = 0
CLASSIFICATION_TYPE = U
NORAD_CAT_ID   = 66558
ELEMENT_SET_NO = 999
REV_AT_EPOCH   = 477
BSTAR          = .15519669E-2
MEAN_MOTION_DOT = .92037E-3
MEAN_MOTION_DDOT = 0

CCSDS_OMM_VERS = 2.0
CREATION_DATE  = 
ORIGINATOR     = 

OBJECT_NAME    = STARLINK-35419
OBJECT_ID      = 2025-268C
CENTER_NAME    = EARTH
REF_FRAME      = TEME
TIME_SYSTEM    = UTC
MEAN_ELEMENT_THEORY = SGP/SGP4

EPOCH          = 2025-12-13T16:30:11.401344
MEAN_MOTION    = 15.50626619
ECCENTRICITY   = .00046072
INCLINATION    = 43.0002
RA_OF_ASC_NODE = 115.6467
ARG_OF_PERICENTER = 276.7256
MEAN_ANOMALY   = 83.3080

EPHEMERIS_TYPE = 0
CLASSIFICATION_TYPE = U
NORAD_CAT_ID   = 66559
ELEMENT_SET_NO = 999
REV_AT_EPOCH   = 477
BSTAR          = .15324685E-2
MEAN_MOTION_DOT = .90791E-3
MEAN_MOTION_DDOT = 0

CCSDS_OMM_VERS = 2.0
CREATION_DATE  = 
ORIGINATOR     = 

OBJECT_NAME    = STARLINK-35411
OBJECT_ID      = 2025-268D
CENTER_NAME    = EARTH
REF_FRAME      = TEME
TIME_SYSTEM    = UTC
MEAN_ELEMENT_THEORY = SGP/SGP4

EPOCH          = 2025-12-13T16:29:42.127296
MEAN_MOTION    = 15.50572925
ECCENTRICITY   = .00023124
INCLINATION    = 43.0004
RA_OF_ASC_NODE = 115.6445
ARG_OF_PERICENTER = 316.0869
MEAN_ANOMALY   = 43.9807

EPHEMERIS_TYPE = 0
CLASSIFICATION_TYPE = U
NORAD_CAT_ID   = 66560
ELEMENT_SET_NO = 999
REV_AT_EPOCH   = 477
BSTAR          = .12956136E-2
MEAN_MOTION_DOT = .76398E-3
MEAN_MOTION_DDOT = 0

CCSDS_OMM_VERS = 2.0
CREATION_DATE  = 
ORIGINATOR     = 

OBJECT_NAME    = STARLINK-35305
OBJECT_ID      = 2025-268E
CENTER_NAME    = EARTH
REF_FRAME      = TEME
TIME_SYSTEM    = UTC
MEAN_ELEMENT_THEORY = SGP/SGP4

EPOCH          = 2025-12-13T18:01:27.272640
MEAN_MOTION    = 15.50567943
ECCENTRICITY   = .00053533
INCLINATION    = 42.9991
RA_OF_ASC_NODE = 115.2604
ARG_OF_PERICENTER = 238.6620
MEAN_ANOMALY   = 121.3717

EPHEMERIS_TYPE = 0
CLASSIFICATION_TYPE = U
NORAD_CAT_ID   = 66561
ELEMENT_SET_NO = 999
REV_AT_EPOCH   = 478
BSTAR          = .16288996E-2
MEAN_MOTION_DOT = .96406E-3
MEAN_MOTION_DDOT = 0

CCSDS_OMM_VERS = 2.0
CREATION_DATE  = 
ORIGINATOR     = 

OBJECT_NAME    = STARLINK-35579
OBJECT_ID      = 2025-268F
CENTER_NAME    = EARTH
REF_FRAME      = TEME
TIME_SYSTEM    = UTC
MEAN_ELEMENT_THEORY = SGP/SGP4

EPOCH          = 2025-12-13T16:29:12.763392
MEAN_MOTION    = 15.50595602
ECCENTRICITY   = .00022991
INCLINATION    = 43.0001
RA_OF_ASC_NODE = 115.6406
ARG_OF_PERICENTER = 314.8190
MEAN_ANOMALY   = 45.2483

EPHEMERIS_TYPE = 0
CLASSIFICATION_TYPE = U
NORAD_CAT_ID   = 66562
ELEMENT_SET_NO = 999
REV_AT_EPOCH   = 477
BSTAR          = .12293675E-2
MEAN_MOTION_DOT = .72496E-3
MEAN_MOTION_DDOT = 0

CCSDS_OMM_VERS = 2.0
CREATION_DATE  = 
ORIGINATOR     = 

OBJECT_NAME    = STARLINK-35437
OBJECT_ID      = 2025-268G
CENTER_NAME    = EARTH
REF_FRAME      = TEME
TIME_SYSTEM    = UTC
MEAN_ELEMENT_THEORY = SGP/SGP4

EPOCH          = 2025-12-13T18:00:59.271264
MEAN_MOTION    = 15.50599495
ECCENTRICITY   = .00009723
INCLINATION    = 42.9993
RA_OF_ASC_NODE = 115.2574
ARG_OF_PERICENTER = 282.1905
MEAN_ANOMALY   = 77.8847

EPHEMERIS_TYPE = 0
CLASSIFICATION_TYPE = U
NORAD_CAT_ID   = 66563
ELEMENT_SET_NO = 999
REV_AT_EPOCH   = 478
BSTAR          = .20498902E-2
MEAN_MOTION_DOT = .121894E-2
MEAN_MOTION_DDOT = 0

CCSDS_OMM_VERS = 2.0
CREATION_DATE  = 
ORIGINATOR     = 

OBJECT_NAME    = STARLINK-35358
OBJECT_ID      = 2025-268H
CENTER_NAME    = EARTH
REF_FRAME      = TEME
TIME_SYSTEM    = UTC
MEAN_ELEMENT_THEORY = SGP/SGP4

EPOCH          = 2025-12-13T16:27:43.902720
MEAN_MOTION    = 15.50605264
ECCENTRICITY   = .00016791
INCLINATION    = 43.0002
RA_OF_ASC_NODE = 115.6325
ARG_OF_PERICENTER = 311.2605
MEAN_ANOMALY   = 48.8110

EPHEMERIS_TYPE = 0
CLASSIFICATION_TYPE = U
NORAD_CAT_ID   = 66564
ELEMENT_SET_NO = 999
REV_AT_EPOCH   = 477
BSTAR          = .17717022E-2
MEAN_MOTION_DOT = .105101E-2
MEAN_MOTION_DDOT = 0

CCSDS_OMM_VERS = 2.0
CREATION_DATE  = 
ORIGINATOR     = 

OBJECT_NAME    = STARLINK-35893
OBJECT_ID      = 2025-268J
CENTER_NAME    = EARTH
REF_FRAME      = TEME
TIME_SYSTEM    = UTC
MEAN_ELEMENT_THEORY = SGP/SGP4

EPOCH          = 2025-12-13T17:59:59.574048
MEAN_MOTION    = 15.50609427
ECCENTRICITY   = .00018158
INCLINATION    = 42.9998
RA_OF_ASC_NODE = 115.2522
ARG_OF_PERICENTER = 277.9053
MEAN_ANOMALY   = 82.1601

EPHEMERIS_TYPE = 0
CLASSIFICATION_TYPE = U
NORAD_CAT_ID   = 66565
ELEMENT_SET_NO = 999
REV_AT_EPOCH   = 478
BSTAR          = .2034832E-2
MEAN_MOTION_DOT = .121027E-2
MEAN_MOTION_DDOT = 0

